[{"OBJECT_NAME":"ONEWEB-0141","OBJECT_ID":"2020-100AF","EPOCH":"2026-01-18T12:20:22.540992","MEAN_MOTION":13.12443324,"ECCENTRICITY":0.0002036,"INCLINATION":87.8927,"RA_OF_ASC_NODE":20.3617,"ARG_OF_PERICENTER":93.6673,"MEAN_ANOMALY":266.4689,"EPHEMERIS_TYPE":0,"CLASSIFICATION_TYPE":"U","NORAD_CAT_ID":47287,"ELEMENT_SET_NO":999,"REV_AT_EPOCH":24504,"BSTAR":0.00077795804,"MEAN_MOTION_DOT":2.93e-6,"MEAN_MOTION_DDOT":0},{"OBJECT_NAME":"ONEWEB-0142","OBJECT_ID":"2020-100AG","EPOCH":"2026-01-18T10:13:53.726592","MEAN_MOTION":13.12446211,"ECCENTRICITY":0.00018528,"INCLINATION":87.8928,"RA_OF_ASC_NODE":20.4031,"ARG_OF_PERICENTER":101.5755,"MEAN_ANOMALY":258.5582,"EPHEMERIS_TYPE":0,"CLASSIFICATION_TYPE":"U","NORAD_CAT_ID":47288,"ELEMENT_SET_NO":999,"REV_AT_EPOCH":24502,"BSTAR":-0.00024483574,"MEAN_MOTION_DOT":-7.5e-7,"MEAN_MOTION_DDOT":0},{"OBJECT_NAME":"ONEWEB-0143","OBJECT_ID":"2020-100AH","EPOCH":"2026-01-18T12:18:09.162720","MEAN_MOTION":13.1244429,"ECCENTRICITY":0.00017875,"INCLINATION":87.8929,"RA_OF_ASC_NODE":20.3819,"ARG_OF_PERICENTER":88.8747,"MEAN_ANOMALY":271.2587,"EPHEMERIS_TYPE":0,"CLASSIFICATION_TYPE":"U","NORAD_CAT_ID":47289,"ELEMENT_SET_NO":999,"REV_AT_EPOCH":24501,"BSTAR":0.00049013099,"MEAN_MOTION_DOT":1.89e-6,"MEAN_MOTION_DDOT":0},{"OBJECT_NAME":"ONEWEB-0144","OBJECT_ID":"2020-100AJ","EPOCH":"2026-01-18T13:26:25.296000","MEAN_MOTION":13.1244118,"ECCENTRICITY":0.0001557,"INCLINATION":87.8928,"RA_OF_ASC_NODE":20.3412,"ARG_OF_PERICENTER":99.6463,"MEAN_ANOMALY":260.4841,"EPHEMERIS_TYPE":0,"CLASSIFICATION_TYPE":"U","NORAD_CAT_ID":47290,"ELEMENT_SET_NO":999,"REV_AT_EPOCH":24494,"BSTAR":-0.00094803782,"MEAN_MOTION_DOT":-3.28e-6,"MEAN_MOTION_DDOT":0},{"OBJECT_NAME":"ONEWEB-0145","OBJECT_ID":"2020-100AK","EPOCH":"2026-01-18T12:44:58.386048","MEAN_MOTION":13.12441437,"ECCENTRICITY":0.00017335,"INCLINATION":87.8932,"RA_OF_ASC_NODE":20.3862,"ARG_OF_PERICENTER":91.0793,"MEAN_ANOMALY":269.0534,"EPHEMERIS_TYPE":0,"CLASSIFICATION_TYPE":"U","NORAD_CAT_ID":47291,"ELEMENT_SET_NO":999,"REV_AT_EPOCH":24513,"BSTAR":0.0011334093,"MEAN_MOTION_DOT":4.2e-6,"MEAN_MOTION_DDOT":0},{"OBJECT_NAME":"ONEWEB-0146","OBJECT_ID":"2020-100AL","EPOCH":"2026-01-18T12:40:06.855168","MEAN_MOTION":13.12442771,"ECCENTRICITY":0.00018618,"INCLINATION":87.893,"RA_OF_ASC_NODE":20.3723,"ARG_OF_PERICENTER":77.5025,"MEAN_ANOMALY":282.6311,"EPHEMERIS_TYPE":0,"CLASSIFICATION_TYPE":"U","NORAD_CAT_ID":47292,"ELEMENT_SET_NO":999,"REV_AT_EPOCH":24504,"BSTAR":0.0013071984,"MEAN_MOTION_DOT":4.83e-6,"MEAN_MOTION_DDOT":0},{"OBJECT_NAME":"ONEWEB-0147","OBJECT_ID":"2020-100AM","EPOCH":"2026-01-18T10:01:29.888256","MEAN_MOTION":13.12443278,"ECCENTRICITY":0.00014974,"INCLINATION":87.8931,"RA_OF_ASC_NODE":20.373,"ARG_OF_PERICENTER":86.0115,"MEAN_ANOMALY":274.1185,"EPHEMERIS_TYPE":0,"CLASSIFICATION_TYPE":"U","NORAD_CAT_ID":47293,"ELEMENT_SET_NO":999,"REV_AT_EPOCH":24492,"BSTAR":-0.0012336376,"MEAN_MOTION_DOT":-4.31e-6,"MEAN_MOTION_DDOT":0},{"OBJECT_NAME":"ONEWEB-0115","OBJECT_ID":"2021-025A","EPOCH":"2026-01-18T15:20:15.623808","MEAN_MOTION":13.13468015,"ECCENTRICITY":0.00017913,"INCLINATION":87.9013,"RA_OF_ASC_NODE":349.9364,"ARG_OF_PERICENTER":81.3786,"MEAN_ANOMALY":278.7546,"EPHEMERIS_TYPE":0,"CLASSIFICATION_TYPE":"U","NORAD_CAT_ID":48042,"ELEMENT_SET_NO":999,"REV_AT_EPOCH":23396,"BSTAR":-0.0006219698,"MEAN_MOTION_DOT":-2.14e-6,"MEAN_MOTION_DDOT":0},{"OBJECT_NAME":"ONEWEB-0152","OBJECT_ID":"2021-025B","EPOCH":"2026-01-18T08:21:01.831968","MEAN_MOTION":13.13471152,"ECCENTRICITY":0.00018085,"INCLINATION":87.9007,"RA_OF_ASC_NODE":349.9984,"ARG_OF_PERICENTER":78.8186,"MEAN_ANOMALY":281.3147,"EPHEMERIS_TYPE":0,"CLASSIFICATION_TYPE":"U","NORAD_CAT_ID":48043,"ELEMENT_SET_NO":999,"REV_AT_EPOCH":23388,"BSTAR":0.00024991046,"MEAN_MOTION_DOT":1.04e-6,"MEAN_MOTION_DDOT":0},{"OBJECT_NAME":"ONEWEB-0153","OBJECT_ID":"2021-025C","EPOCH":"2026-01-18T15:08:06.402624","MEAN_MOTION":13.13471022,"ECCENTRICITY":0.00017518,"INCLINATION":87.9006,"RA_OF_ASC_NODE":349.9486,"ARG_OF_PERICENTER":85.543,"MEAN_ANOMALY":274.59,"EPHEMERIS_TYPE":0,"CLASSIFICATION_TYPE":"U","NORAD_CAT_ID":48044,"ELEMENT_SET_NO":999,"REV_AT_EPOCH":23391,"BSTAR":-0.00060887052,"MEAN_MOTION_DOT":-2.1e-6,"MEAN_MOTION_DDOT":0},{"OBJECT_NAME":"ONEWEB-0154","OBJECT_ID":"2021-025D","EPOCH":"2026-01-18T15:03:14.229792","MEAN_MOTION":13.13469875,"ECCENTRICITY":0.00016998,"INCLINATION":87.9007,"RA_OF_ASC_NODE":349.9461,"ARG_OF_PERICENTER":81.5553,"MEAN_ANOMALY":278.5768,"EPHEMERIS_TYPE":0,"CLASSIFICATION_TYPE":"U","NORAD_CAT_ID":48045,"ELEMENT_SET_NO":999,"REV_AT_EPOCH":23387,"BSTAR":-0.00064665213,"MEAN_MOTION_DOT":-2.23e-6,"MEAN_MOTION_DDOT":0},{"OBJECT_NAME":"ONEWEB-0116","OBJECT_ID":"2021-025E","EPOCH":"2026-01-18T08:40:31.672416","MEAN_MOTION":13.13470931,"ECCENTRICITY":0.00017853,"INCLINATION":87.901,"RA_OF_ASC_NODE":349.9845,"ARG_OF_PERICENTER":78.0907,"MEAN_ANOMALY":282.0422,"EPHEMERIS_TYPE":0,"CLASSIFICATION_TYPE":"U","NORAD_CAT_ID":48046,"ELEMENT_SET_NO":999,"REV_AT_EPOCH":23398,"BSTAR":0.00096704874,"MEAN_MOTION_DOT":3.66e-6,"MEAN_MOTION_DDOT":0},{"OBJECT_NAME":"ONEWEB-0150","OBJECT_ID":"2021-025F","EPOCH":"2026-01-18T15:25:09.446880","MEAN_MOTION":13.13471214,"ECCENTRICITY":0.00019325,"INCLINATION":87.9015,"RA_OF_ASC_NODE":349.925,"ARG_OF_PERICENTER":86.1725,"MEAN_ANOMALY":273.9625,"EPHEMERIS_TYPE":0,"CLASSIFICATION_TYPE":"U","NORAD_CAT_ID":48047,"ELEMENT_SET_NO":999,"REV_AT_EPOCH":23391,"BSTAR":-0.00074303379,"MEAN_MOTION_DOT":-2.59e-6,"MEAN_MOTION_DDOT":0},{"OBJECT_NAME":"ONEWEB-0107","OBJECT_ID":"2021-025G","EPOCH":"2026-01-18T09:58:32.274912","MEAN_MOTION":13.13470623,"ECCENTRICITY":0.00017022,"INCLINATION":87.9011,"RA_OF_ASC_NODE":349.9659,"ARG_OF_PERICENTER":91.4705,"MEAN_ANOMALY":268.6619,"EPHEMERIS_TYPE":0,"CLASSIFICATION_TYPE":"U","NORAD_CAT_ID":48048,"ELEMENT_SET_NO":999,"REV_AT_EPOCH":23386,"BSTAR":-0.00056555948,"MEAN_MOTION_DOT":-1.94e-6,"MEAN_MOTION_DDOT":0},{"OBJECT_NAME":"ONEWEB-0101","OBJECT_ID":"2021-025H","EPOCH":"2026-01-18T09:04:54.010560","MEAN_MOTION":13.13469995,"ECCENTRICITY":0.00015989,"INCLINATION":87.9002,"RA_OF_ASC_NODE":350.004,"ARG_OF_PERICENTER":84.4132,"MEAN_ANOMALY":275.7179,"EPHEMERIS_TYPE":0,"CLASSIFICATION_TYPE":"U","NORAD_CAT_ID":48049,"ELEMENT_SET_NO":999,"REV_AT_EPOCH":23383,"BSTAR":0.00060209839,"MEAN_MOTION_DOT":2.33e-6,"MEAN_MOTION_DDOT":0},{"OBJECT_NAME":"ONEWEB-0113","OBJECT_ID":"2021-025J","EPOCH":"2026-01-18T14:36:37.357344","MEAN_MOTION":13.13987004,"ECCENTRICITY":0.00019492,"INCLINATION":87.9011,"RA_OF_ASC_NODE":349.8827,"ARG_OF_PERICENTER":78.3207,"MEAN_ANOMALY":281.8141,"EPHEMERIS_TYPE":0,"CLASSIFICATION_TYPE":"U","NORAD_CAT_ID":48050,"ELEMENT_SET_NO":999,"REV_AT_EPOCH":23396,"BSTAR":0.0003982801,"MEAN_MOTION_DOT":1.59e-6,"MEAN_MOTION_DDOT":0}]
