ONEWEB-0141             
1 47287U 20100AF  26018.51414978  .00000293  00000+0  77796-3 0  9999
2 47287  87.8927  20.3617 0002036  93.6673 266.4689 13.12443324245048
ONEWEB-0142             
1 47288U 20100AG  26018.42631628 -.00000075  00000+0 -24484-3 0  9999
2 47288  87.8928  20.4031 0001852 101.5755 258.5582 13.12446211245026
ONEWEB-0143             
1 47289U 20100AH  26018.51260605  .00000189  00000+0  49013-3 0  9992
2 47289  87.8929  20.3819 0001787  88.8747 271.2587 13.12444290245017
ONEWEB-0144             
1 47290U 20100AJ  26018.56001500 -.00000328  00000+0 -94804-3 0  9991
2 47290  87.8928  20.3412 0001557  99.6463 260.4841 13.12441180244946
ONEWEB-0145             
1 47291U 20100AK  26018.53123132  .00000420  00000+0  11334-2 0  9992
2 47291  87.8932  20.3862 0001733  91.0793 269.0534 13.12441437245130
ONEWEB-0146             
1 47292U 20100AL  26018.52785712  .00000483  00000+0  13072-2 0  9990
2 47292  87.8930  20.3723 0001861  77.5025 282.6311 13.12442771245040
ONEWEB-0147             
1 47293U 20100AM  26018.41770704 -.00000431  00000+0 -12336-2 0  9991
2 47293  87.8931  20.3730 0001497  86.0115 274.1185 13.12443278244924
ONEWEB-0115             
1 48042U 21025A   26018.63906972 -.00000214  00000+0 -62197-3 0  9993
2 48042  87.9013 349.9364 0001791  81.3786 278.7546 13.13468015233961
ONEWEB-0152             
1 48043U 21025B   26018.34793787  .00000104  00000+0  24991-3 0  9996
2 48043  87.9007 349.9984 0001808  78.8186 281.3147 13.13471152233881
ONEWEB-0153             
1 48044U 21025C   26018.63062966 -.00000210  00000+0 -60887-3 0  9991
2 48044  87.9006 349.9486 0001751  85.5430 274.5900 13.13471022233913
ONEWEB-0154             
1 48045U 21025D   26018.62724803 -.00000223  00000+0 -64665-3 0  9998
2 48045  87.9007 349.9461 0001699  81.5553 278.5768 13.13469875233875
ONEWEB-0116             
1 48046U 21025E   26018.36147769  .00000366  00000+0  96705-3 0  9996
2 48046  87.9010 349.9845 0001785  78.0907 282.0422 13.13470931233980
ONEWEB-0150             
1 48047U 21025F   26018.64247045 -.00000259  00000+0 -74303-3 0  9999
2 48047  87.9015 349.9250 0001932  86.1725 273.9625 13.13471214233910
ONEWEB-0107             
1 48048U 21025G   26018.41565133 -.00000194  00000+0 -56556-3 0  9994
2 48048  87.9011 349.9659 0001702  91.4705 268.6619 13.13470623233863
ONEWEB-0101             
1 48049U 21025H   26018.37840290  .00000233  00000+0  60210-3 0  9994
2 48049  87.9002 350.0040 0001598  84.4132 275.7179 13.13469995233837
ONEWEB-0113             
1 48050U 21025J   26018.60876571  .00000159  00000+0  39828-3 0  9991
2 48050  87.9011 349.8827 0001949  78.3207 281.8141 13.13987004233960
